[{"OBJECT_NAME":"STARLINK-34603","OBJECT_ID":"2025-176Y","EPOCH":"2026-03-09T12:27:41.741568","MEAN_MOTION":15.30187827,"ECCENTRICITY":0.00013435,"INCLINATION":53.1574,"RA_OF_ASC_NODE":153.5708,"ARG_OF_PERICENTER":71.6489,"MEAN_ANOMALY":288.4657,"EPHEMERIS_TYPE":0,"CLASSIFICATION_TYPE":"U","NORAD_CAT_ID":65220,"ELEMENT_SET_NO":999,"REV_AT_EPOCH":3309,"BSTAR":0.00092131687,"MEAN_MOTION_DOT":0.00027017,"MEAN_MOTION_DDOT":0},{"OBJECT_NAME":"COSMOS 1869","OBJECT_ID":"1987-062A","EPOCH":"2026-03-09T20:30:29.271744","MEAN_MOTION":15.35392408,"ECCENTRICITY":0.00185772,"INCLINATION":82.5127,"RA_OF_ASC_NODE":201.6716,"ARG_OF_PERICENTER":61.4986,"MEAN_ANOMALY":298.8125,"EPHEMERIS_TYPE":0,"CLASSIFICATION_TYPE":"U","NORAD_CAT_ID":18214,"ELEMENT_SET_NO":999,"REV_AT_EPOCH":8931,"BSTAR":0.00042037944,"MEAN_MOTION_DOT":0.00014573,"MEAN_MOTION_DDOT":0}]
